[{"OBJECT_NAME":"ION SCV-015","OBJECT_ID":"2023-185H","EPOCH":"2026-03-09T22:36:51.209568","MEAN_MOTION":15.3163624,"ECCENTRICITY":0.00109059,"INCLINATION":97.5772,"RA_OF_ASC_NODE":155.3582,"ARG_OF_PERICENTER":92.3805,"MEAN_ANOMALY":267.8685,"EPHEMERIS_TYPE":0,"CLASSIFICATION_TYPE":"U","NORAD_CAT_ID":58469,"ELEMENT_SET_NO":999,"REV_AT_EPOCH":12588,"BSTAR":0.00030895808,"MEAN_MOTION_DOT":9.376e-5,"MEAN_MOTION_DDOT":0},{"OBJECT_NAME":"STARLINK-34517","OBJECT_ID":"2025-137B","EPOCH":"2026-03-09T21:29:22.672320","MEAN_MOTION":15.30211996,"ECCENTRICITY":0.00010947,"INCLINATION":53.1569,"RA_OF_ASC_NODE":334.4805,"ARG_OF_PERICENTER":107.203,"MEAN_ANOMALY":252.9091,"EPHEMERIS_TYPE":0,"CLASSIFICATION_TYPE":"U","NORAD_CAT_ID":64595,"ELEMENT_SET_NO":999,"REV_AT_EPOCH":4076,"BSTAR":0.00087225943,"MEAN_MOTION_DOT":0.00025573,"MEAN_MOTION_DDOT":0}]
